GLOBALSTAR M063         
1 26081U 00008A   25293.62615229 -.00000034  00000+0  71539-3 0  9994
2 26081  51.9921 141.2089 0004302 181.8795 215.5866 11.86176521172460
GLOBALSTAR M062         
1 26082U 00008B   25293.60220160 -.00000067  00000+0  22285-3 0  9999
2 26082  51.9838  86.9691 0007308  27.3870  51.4462 12.43475084512220
GLOBALSTAR M060         
1 26083U 00008C   25293.66474150 -.00000086  00000+0  47330-4 0  9996
2 26083  52.0027  64.5446 0003409  35.7238  66.5997 12.17668789167652
GLOBALSTAR M064         
1 26084U 00008D   25293.03113108 -.00000070  00000+0  18215-3 0  9993
2 26084  52.0022 240.1325 0001420 322.2881  37.7852 11.88537804181943
GLOBALSTAR M065         
1 31571U 07020A   25293.22632812 -.00000047  00000+0  31807-3 0  9996
2 31571  51.9884 205.6852 0009267 223.4972 301.5260 12.62010517849198
GLOBALSTAR M069         
1 31573U 07020C   25293.18566531 -.00000092  00000+0  28877-5 0  9992
2 31573  52.0024 211.4209 0002401  26.7932 121.5515 12.23462326849427
GLOBALSTAR M072         
1 31574U 07020D   25293.56549008 -.00000076  00000+0  10487-3 0  9993
2 31574  51.9965  18.1811 0001275 183.2256 190.4259 11.91652256846410
GLOBALSTAR M071         
1 31576U 07020F   25293.60254552 -.00000016  00000+0  74521-3 0  9990
2 31576  52.0055 239.3952 0001353  21.4018 149.6673 12.18260139510221
